ARIANE 5 R/B            
1 28499U 04049H   25364.44077644  .00002197  00000+0  24863-3 0  9999
2 28499  98.2526 165.3582 0083750 214.8518 144.7195 14.85065886135515
CZ-2D R/B               
1 28738U 05024B   25364.56198824  .00043819  00000+0  66849-3 0  9992
2 28738  97.3628  12.4892 0003044 281.8771  78.2142 15.54332184129020
ALOS (DAICHI)           
1 28931U 06002A   25351.73419158  .00001110  00000+0  19545-3 0  9994
2 28931  98.1098 303.1864 0001361 113.5739 246.5610 14.69501788 61443
H-2A R/B                
1 28932U 06002B   25364.35708904  .00014252  00000+0  73929-3 0  9994
2 28932  98.2315 140.5496 0054747 116.9401 243.7437 15.14952352 83932
RESURS-DK 1             
1 29228U 06021A   25364.55782848  .00004525  00000+0  26690-3 0  9990
2 29228  69.9346  55.7863 0007030 243.6938 116.3507 15.12273228 77078
CZ-4B R/B               
1 29507U 06046C   25364.72297499  .00008431  00000+0  43484-3 0  9999
2 29507  97.5719  44.8127 0034714 144.4191 215.9366 15.16071619 49598
CZ-2C R/B               
1 31114U 07010B   25364.75453235  .00000252  00000+0  13439-3 0  9993
2 31114  98.3976 116.4990 0059820 134.0113 226.6017 14.20218004969933
COSMO-SKYMED 1          
1 31598U 07023A   25364.84947153  .00006275  00000+0  56575-3 0  9999
2 31598  97.8831 190.3686 0001046  83.9150 276.2190 14.95913770  4618
COSMOS 2428             
1 31792U 07029A   25364.36698789  .00000337  00000+0  20695-3 0  9993
2 31792  70.9374 348.8688 0004687 359.1578   0.9534 14.12898462954309
SL-16 R/B               
1 31793U 07029B   25364.83421081  .00000264  00000+0  16165-3 0  9991
2 31793  70.9771 317.1211 0001975 269.2983 110.3292 14.14823068955636
KORONAS-FOTON           
1 33504U 09003A   25364.41254483  .00013173  00000+0  31189-3 0  9997
2 33504  82.4309 347.7880 0013013  53.8019 306.4429 15.41548380935064
CZ-2C R/B               
1 37731U 11030B   25364.83077681  .00002429  00000+0  31357-3 0  9994
2 37731  97.8429 318.5398 0051854 213.2003 176.6025 14.80962984779903
H-2A R/B                
1 38341U 12025E   25364.78391983  .00005065  00000+0  46514-3 0  9995
2 38341  98.4620 321.4092 0044936 176.0937 184.0640 14.94575772737922
SHIJIAN-16 (SJ-16)      
1 39358U 13057A   25364.84094030  .00006901  00000+0  67974-3 0  9993
2 39358  74.9734 315.4021 0018053 278.0818  81.8321 14.92064209661239
SL-4 R/B                
1 39679U 14021B   25364.56232552  .00016086  00000+0  37677-3 0  9995
2 39679  51.6083 313.9519 0100355 210.6128 148.8975 15.37114740645633
ALOS-2                  
1 39766U 14029A   25364.80100167  .00005904  00000+0  79631-3 0  9996
2 39766  97.9213  99.3896 0001340  96.3654 263.7710 14.79494213626687
YAOGAN-29               
1 41038U 15069A   25364.83592977  .00001080  00000+0  13990-3 0  9990
2 41038  98.0214  28.0647 0001334 152.9050 207.2233 14.82904991545675
ASTRO-H (HITOMI)        
1 41337U 16012A   25364.54491750  .00005837  00000+0  34951-3 0  9990
2 41337  30.9999  82.5743 0009605 357.4048   2.6539 15.09483600541774
HXMT (HUIYAN)           
1 42758U 17034A   25364.57616041  .00010938  00000+0  55591-3 0  9999
2 42758  43.0153  40.6355 0031849 160.0131 200.1971 15.16475743472044
CZ-2C R/B               
1 43521U 18054D   25364.47086471  .00166066  00000+0  90938-3 0  9996
2 43521  35.1333  60.3140 0013438 319.5558  40.4177 15.78218532417854
SAOCOM 1A               
1 43641U 18076A   25364.76475513  .00000403  00000+0  57231-4 0  9996
2 43641  97.8849 188.9241 0001424  82.0562 278.0812 14.82154587391154
H-2A R/B                
1 43682U 18084L   25364.65255429  .00030245  00000+0  79766-3 0  9993
2 43682  98.8767 202.4539 0026181 263.5082  96.3177 15.38103922395159
SAOCOM 1B               
1 46265U 20059A   25364.79599837  .00000992  00000+0  13110-3 0  9994
2 46265  97.8845 188.0545 0001415  84.1215 276.0159 14.82159487288545
CSS (TIANHE)            
1 48274U 21035A   25364.77333338  .00024941  00000+0  30324-3 0  9997
2 48274  41.4669 267.1660 0009716 184.6419 175.4330 15.59924070266842
COSMOS 2550             
1 48865U 21056A   25364.98417108 -.00000176  00000+0  47448-6 0  9990
2 48865  67.1417 248.7510 0008364 270.0048  90.0148 15.33835013252922
CZ-2C R/B               
1 52794U 22058K   25364.28980737  .00045940  00000+0  78995-3 0  9990
2 52794  50.1913 313.9891 0044129 270.5241  89.0671 15.49507691199358
CZ-2C R/B               
1 54039U 22132E   25364.55633595  .00041733  00000+0  59447-3 0  9991
2 54039  97.2947   1.1102 0019879 355.2026   4.9035 15.55987179179604
GSLV R/B                
1 54149U 22138AN  25364.57953807  .00004540  00000+0  39793-3 0  9999
2 54149  87.3820 189.4983 0023565  47.0822 313.2382 14.96231114173598
XRISM                   
1 57800U 23137A   25364.34652408  .00009541  00000+0  55822-3 0  9991
2 57800  31.0036  11.8538 0007563  63.7685 296.3730 15.10546077127294
ACS3                    
1 59588U 24077B   25364.80273979  .00035608  00000+0  30009-1 0  9994
2 59588  97.2546 316.3727 0071762 293.2280  66.1337 13.86422535 84645
SZ-21 MODULE            
1 66515U 25246C   25364.43071403  .00036786  00000+0  38781-3 0  9993
2 66515  41.4763 268.0522 0003216 359.0458   1.0376 15.63504486  7210
